GSAT0201 (GALILEO 5)    
1 40128U 14050A   23264.05182052 -.00000041  00000+0  00000+0 0  9999
2 40128  49.9204 313.8983 1608270 141.0100 231.7832  1.85519208 59763
GSAT0202 (GALILEO 6)    
1 40129U 14050B   23262.69416895 -.00000045  00000+0  00000+0 0  9997
2 40129  49.9408 313.0244 1606306 141.7682 230.8116  1.85519832 61909
IRNSS-1C                
1 40269U 14061A   23264.56866837 -.00000155  00000+0  00000+0 0  9999
2 40269   4.0038 112.1867 0020688   3.7306 171.9178  1.00266382 32666
NAVSTAR 72 (USA 258)    
1 40294U 14068A   23263.77463117  .00000006  00000+0  00000+0 0  9994
2 40294  56.1923  69.8160 0049127  62.3763 298.1504  2.00572842 65120
COSMOS 2501             
1 40315U 14075A   23264.30902775  .00000066  00000+0  00000+0 0  9990
2 40315  63.6390 225.0680 0019743 210.8267 149.0501  2.13101270 68545
NAVSTAR 73 (USA 260)    
1 40534U 15013A   23263.41327703  .00000055  00000+0  00000+0 0  9997
2 40534  53.4579 245.6237 0081171  25.5069 334.8823  2.00553673 61756
GSAT0203 (GALILEO 7)    
1 40544U 15017A   23263.50055756 -.00000078  00000+0  00000+0 0  9994
2 40544  56.9065   8.8333 0003505 229.0751 130.9190  1.70476277 52803
GSAT0204 (GALILEO 8)    
1 40545U 15017B   23263.16764989 -.00000078  00000+0  00000+0 0  9992
2 40545  56.9127   8.8568 0003932 215.0847 144.9135  1.70475744 52800
IRNSS-1D                
1 40547U 15018A   23264.41884331 -.00000265  00000+0  00000+0 0  9996
2 40547  28.0399 257.3450 0019468 190.0348 175.1520  1.00268273 30960
BEIDOU-3S IGSO-1S       
1 40549U 15019A   23263.60396500 -.00000135  00000+0  00000+0 0  9991
2 40549  51.0714 307.3815 0040760 196.7796 165.0503  1.00252925 31045
NAVSTAR 74 (USA 262)    
1 40730U 15033A   23264.57227185 -.00000015  00000+0  00000+0 0  9995
2 40730  54.8313 308.0312 0085794  13.9393 346.3608  2.00554318 59943
BEIDOU-3S M2S           
1 40748U 15037A   23263.97800183 -.00000069  00000+0  00000+0 0  9995
2 40748  55.6523 336.2044 0011874 243.1558 116.7843  1.86233123 55494
BEIDOU-3S M1S           
1 40749U 15037B   23262.10033346 -.00000072  00000+0  00000+0 0  9993
2 40749  55.6565 336.2542 0003734 297.0112  63.0145  1.86232905 55467
GSAT0205 (GALILEO 9)    
1 40889U 15045A   23262.93556866  .00000046  00000+0  00000+0 0  9995
2 40889  55.3565 249.2650 0003695 359.5669   0.4185  1.70473230 49945
GSAT0206 (GALILEO 10)   
1 40890U 15045B   23263.74284360  .00000049  00000+0  00000+0 0  9997
2 40890  55.3548 249.2383 0002503 328.8869  31.0869  1.70473235 49987
BEIDOU-3S IGSO-2S       
1 40938U 15053A   23264.60557934 -.00000095  00000+0  00000+0 0  9997
2 40938  50.7852 270.5445 0047583 195.0435 209.0921  1.00279132 29339
NAVSTAR 75 (USA 265)    
1 41019U 15062A   23264.12576154  .00000007  00000+0  00000+0 0  9992
2 41019  56.1760  69.6526 0089866 221.0888 138.2604  2.00562237 57779
GSAT-15                 
1 41028U 15065A   23264.60743937 -.00000254  00000+0  00000+0 0  9998
2 41028   0.0165 237.1324 0002266 282.5365 152.7481  1.00272758 28772
GSAT0209 (GALILEO 12)   
1 41174U 15079A   23262.15483442  .00000040  00000+0  00000+0 0  9997
2 41174  55.3052 128.7924 0002681 336.1748  23.9195  1.70474077 47693
GSAT0208 (GALILEO 11)   
1 41175U 15079B   23264.13420369  .00000035  00000+0  00000+0 0  9991
2 41175  55.3044 128.7360 0001953 350.0792  10.0152  1.70473888 48144
IRNSS-1E                
1 41241U 16003A   23264.41884331 -.00000284  00000+0  00000+0 0  9994
2 41241  31.0161  77.5357 0020881 176.2519   8.8280  1.00268531 28057
NAVSTAR 76 (USA 266)    
1 41328U 16007A   23264.21663688  .00000025  00000+0  00000+0 0  9994
2 41328  55.0223 129.1796 0071609 233.7068 125.7181  2.00574858 55783
COSMOS 2514             
1 41330U 16008A   23264.29043408 -.00000059  00000+0  00000+0 0  9996
2 41330  65.4980 347.1043 0012104 210.0714 149.9140  2.13102609 59310
IRNSS-1F                
1 41384U 16015A   23264.54643126  .00000164  00000+0  00000+0 0  9990
2 41384   2.9678 129.0041 0018979 176.7445 283.3972  1.00276748 27647
BEIDOU-2 IGSO-6         
1 41434U 16021A   23264.34112438 -.00000139  00000+0  00000+0 0  9991
2 41434  58.7792  48.0949 0048032 218.1491 313.2552  1.00279514 27451
IRNSS-1G                
1 41469U 16027A   23264.60743682 -.00000330  00000+0  00000+0 0  9998
2 41469   2.8574 130.6263 0002300   4.0174 213.7923  1.00270472 27159
GSAT0211 (GALILEO 14)   
1 41549U 16030A   23263.08193665  .00000047  00000+0  00000+0 0  9996
2 41549  55.5027 249.2387 0004020 312.5582  47.3941  1.70473329 45605
GSAT0210 (GALILEO 13)   
1 41550U 16030B   23264.54662674  .00000051  00000+0  00000+0 0  9996
2 41550  55.5015 249.1995 0004122 279.0453  80.8994  1.70473431 45621
COSMOS 2516             
1 41554U 16032A   23263.46616687  .00000066  00000+0  00000+0 0  9991
2 41554  63.8655 225.5027 0015302 214.1592 145.7326  2.13106346 56906
BEIDOU-2 G7             
1 41586U 16037A   23264.60136397 -.00000350  00000+0  00000+0 0  9990
2 41586   1.9095  68.6294 0007714 345.1812 273.3837  1.00277333 26768
EUTELSAT 117 WEST B     
1 41589U 16038B   23264.61430437 -.00000007  00000+0  00000+0 0  9996
2 41589   0.0327  31.3505 0000253 232.6324 200.4042  1.00272174 26644
GSAT0207 (GALILEO 15)   
1 41859U 16069A   23261.86209507  .00000039  00000+0  00000+0 0  9990
2 41859  54.9676 128.8686 0002365 314.4900  45.5984  1.70473987 42313
GSAT0212 (GALILEO 16)   
1 41860U 16069B   23264.06304420  .00000035  00000+0  00000+0 0  9993
2 41860  54.9662 128.8045 0002074   8.7204 351.3816  1.70474221 42602
GSAT0213 (GALILEO 17)   
1 41861U 16069C   23263.84265921  .00000035  00000+0  00000+0 0  9991
2 41861  54.9686 128.8165 0002177 273.3770  86.6973  1.70472885 42464
GSAT0214 (GALILEO 18)   
1 41862U 16069D   23263.40333768  .00000037  00000+0  00000+0 0  9991
2 41862  54.9665 128.8227 0001094 280.5846  79.5041  1.70472713 42582
SES-15                  
1 42709U 17026A   23264.60629949  .00000064  00000+0  00000+0 0  9998
2 42709   0.0386  13.4985 0000441 139.0099 296.8503  1.00268993 24110
QZS-2 (MICHIBIKI-2)     
1 42738U 17028A   23264.27892029 -.00000122  00000+0  00000+0 0  9992
2 42738  41.0178 257.6237 0749680 270.3075  72.8843  1.00260500 23110
QZS-3 (MICHIBIKI-3)     
1 42917U 17048A   23264.60743682 -.00000344  00000+0  00000+0 0  9996
2 42917   0.0549 166.9437 0001714  15.8359 163.1596  1.00274387 22235
COSMOS 2522             
1 42939U 17055A   23264.13210294  .00000067  00000+0  00000+0 0  9995
2 42939  64.0995 226.0098 0009352 243.2707 116.6258  2.13101942 46667
QZS-4 (MICHIBIKI-4)     
1 42965U 17062A   23262.52752684 -.00000298  00000+0  00000+0 0  9994
2 42965  40.6298 356.2539 0749488 269.5553  61.9043  1.00276796 21762
BEIDOU-3 M1             
1 43001U 17069A   23261.64074682  .00000028  00000+0  00000+0 0  9990
2 43001  55.8530  96.3488 0007422 300.2700  59.7301  1.86231653 39935
BEIDOU-3 M2             
1 43002U 17069B   23264.26226320  .00000032  00000+0  00000+0 0  9995
2 43002  55.8546  96.2967 0005766 334.5030  25.5349  1.86231145 39972
GSAT0215 (GALILEO 19)   
1 43055U 17079A   23264.47842474  .00000051  00000+0  00000+0 0  9992
2 43055  55.4784 249.0258 0003619 273.2589  86.6906  1.70473948 35946
GSAT0216 (GALILEO 20)   
1 43056U 17079B   23264.18374461  .00000050  00000+0  00000+0 0  9996
2 43056  55.4795 249.0338 0005187 278.8467  81.0845  1.70474094 35951
GSAT0217 (GALILEO 21)   
1 43057U 17079C   23263.81752149  .00000049  00000+0  00000+0 0  9997
2 43057  55.4772 249.0429 0004617 290.1488  69.7902  1.70474026 35935
GSAT0218 (GALILEO 22)   
1 43058U 17079D   23263.45098590  .00000048  00000+0  00000+0 0  9990
2 43058  55.4776 249.0506 0005658 274.7229  85.1998  1.70474054 35920
BEIDOU-3 M7             
1 43107U 18003A   23263.47607859 -.00000072  00000+0  00000+0 0  9997
2 43107  55.1089 336.9309 0003159  76.9522 283.1441  1.86232444 38713
BEIDOU-3 M8             
1 43108U 18003B   23263.95126775 -.00000071  00000+0  00000+0 0  9993
2 43108  55.1017 336.9014 0004337 246.0572 113.9579  1.86230868 38734
BEIDOU-3 M4             
1 43207U 18018A   23262.78265946  .00000028  00000+0  00000+0 0  9994
2 43207  55.8125  96.4090 0004509  17.6063 342.4787  1.86231512 38097
BEIDOU-3 M3             
1 43208U 18018B   23262.84931814  .00000028  00000+0  00000+0 0  9996
2 43208  55.8122  96.4114 0005365 318.1607  41.8675  1.86231429 38099
BEIDOU-3 M9             
1 43245U 18029A   23261.99820443 -.00000071  00000+0  00000+0 0  9998
2 43245  55.0037 334.7148 0001503 223.5609 136.4919  1.86232696 37237
BEIDOU-3 M10            
1 43246U 18029B   23263.00211392 -.00000070  00000+0  00000+0 0  9999
2 43246  55.0001 334.7082 0002777 349.7266  10.3312  1.86232893 37236
IRNSS-1I                
1 43286U 18035A   23264.08729987  .00000100  00000+0  00000+0 0  9996
2 43286  29.2874  89.9248 0019876 176.9401 179.4465  1.00277190 20045
COSMOS 2527             
1 43508U 18053A   23263.62158961  .00000050  00000+0  00000+0 0  9994
2 43508  65.0979 107.4034 0007405 215.7862 144.2420  2.13102424 40958
BEIDOU-2 IGSO-7         
1 43539U 18057A   23264.57450074 -.00000136  00000+0  00000+0 0  9993
2 43539  55.1185 171.7089 0064039 230.7418 278.3258  1.00278326 19128
GSAT0221 (GALILEO 25)   
1 43564U 18060A   23259.83127371 -.00000085  00000+0  00000+0 0  9992
2 43564  57.2861   8.8642 0002955 251.6027 108.3809  1.70476287 32045
GSAT0222 (GALILEO 26)   
1 43565U 18060B   23262.39572637 -.00000079  00000+0  00000+0 0  9990
2 43565  57.2906   8.7965 0003780 215.9830 144.0147  1.70475919 32138
GSAT0219 (GALILEO 23)   
1 43566U 18060C   23262.03145064 -.00000079  00000+0  00000+0 0  9992
2 43566  57.2895   8.8085 0002292 255.5390 104.4578  1.70476196 32101
GSAT0220 (GALILEO 24)   
1 43567U 18060D   23263.42504255 -.00000078  00000+0  00000+0 0  9997
2 43567  57.2896   8.7718 0002906 252.8548 107.1378  1.70475951 32119
BEIDOU-3 M5             
1 43581U 18062A   23263.22232755  .00000051  00000+0  00000+0 0  9996
2 43581  54.1747 216.3714 0004858 285.4479  74.4812  1.86231883 34990
